STARLINK-4130           
1 53263U 22086X   26164.58109229 -.00000240  00000+0  30355-5 0  9999
2 53263  53.1605 123.5756 0001355  89.7679 270.3468 15.08830095215546
STARLINK-3950           
1 53264U 22086Y   26164.58846266  .00000465  00000+0  47313-4 0  9998
2 53264  53.1593 123.5416 0001428  82.2216 277.8937 15.08831076215545
STARLINK-4097           
1 53265U 22086Z   26164.17628647  .00000139  00000+0  26856-4 0  9992
2 53265  53.1608 125.3943 0001509  87.3102 272.8062 15.08826047215487
STARLINK-4058           
1 53266U 22086AA  26164.57740941  .00000033  00000+0  20204-4 0  9993
2 53266  53.1602 123.5912 0001473  85.2337 274.8822 15.08832510215540
STARLINK-4060           
1 53267U 22086AB  26164.16892608  .00000624  00000+0  57334-4 0  9997
2 53267  53.1606 125.4283 0001252  87.7020 272.4115 15.08829877215482
STARLINK-4109           
1 53268U 22086AC  26164.17260799 -.00000361  00000+0 -45788-5 0  9990
2 53268  53.1606 125.4114 0001460  74.2517 285.8635 15.08833133215484
STARLINK-4122           
1 53272U 22086AG  26164.56361274  .00000091  00000+0  23799-4 0  9993
2 53272  53.1605 113.6517 0001204  81.7644 278.3484 15.08829024215678
STARLINK-4051           
1 53273U 22086AH  26164.14776783 -.00000308  00000+0 -12547-5 0  9996
2 53273  53.1609 115.5227 0001366  88.3152 271.7996 15.08833658215604
STARLINK-4050           
1 53274U 22086AJ  26164.55625238 -.00000361  00000+0 -45683-5 0  9996
2 53274  53.1597 113.6838 0001249  66.7406 293.3717 15.08829172215674
STARLINK-4179           
1 53275U 22086AK  26164.14409694 -.00001206  00000+0 -57717-4 0  9997
2 53275  53.1604 115.5395 0001239 111.1230 248.9894 15.08834149215607
STARLINK-4174           
1 53276U 22086AL  26164.15144778 -.00000427  00000+0 -87375-5 0  9996
2 53276  53.1610 115.5055 0001373  88.5896 271.5253 15.08832049215600
STARLINK-4178           
1 53277U 22086AM  26164.13673068  .00000278  00000+0  35556-4 0  9999
2 53277  53.1612 115.6007 0001428  86.0920 274.0235 15.08834003215603
STARLINK-4180           
1 53278U 22086AN  26164.14040757 -.00000581  00000+0 -18417-4 0  9990
2 53278  53.1620 115.5541 0001291  78.6985 281.4151 15.08831034215601
STARLINK-4169           
1 53280U 22086AQ  26164.06171205 -.00000179  00000+0  68403-5 0  9990
2 53280  53.1606  70.5827 0001383  90.2336 269.8814 15.08833374216232
STARLINK-4164           
1 53282U 22086AS  26164.13306559 -.00000539  00000+0 -15791-4 0  9994
2 53282  53.1605 115.5892 0001375  83.7821 276.3327 15.08825243215600
STARLINK-4175           
1 53283U 22086AT  26164.58568970  .00000553  00000+0  52846-4 0  9997
2 53283  53.1603 113.5549 0000941  78.7050 281.4047 15.08833986215678
STARLINK-4173           
1 53285U 22086AV  26164.57465207  .00000945  00000+0  77431-4 0  9999
2 53285  53.1591 113.6031 0000793 118.9474 241.1597 15.08844029215667
STARLINK-4165           
1 53286U 22086AW  26164.55253498  .00000259  00000+0  34382-4 0  9991
2 53286  53.1608 113.3953 0001475  89.8404 270.2757 15.08840662215664
STARLINK-4107           
1 53287U 22086AX  26164.56731360  .00000144  00000+0  27192-4 0  9996
2 53287  53.1605 113.6370 0001599  78.7504 281.3667 15.08818616215660
STARLINK-4162           
1 53288U 22086AY  26164.57833545 -.00000122  00000+0  10406-4 0  9993
2 53288  53.1604 113.5873 0001420  89.3597 270.7557 15.08829803215660
STARLINK-4176           
1 53289U 22086AZ  26164.54385098 -.00000548  00000+0 -16336-4 0  9997
2 53289  53.1602 108.8846 0001439  84.8365 275.2791 15.08827801215722
STARLINK-4149           
1 53290U 22086BA  26164.56891926  .00012008  00000+0  76572-3 0  9992
2 53290  53.2156 113.6849 0001680  70.9652 289.1523 15.09106107215669
STARLINK-4166           
1 53291U 22086BB  26164.57692337  .00000525  00000+0  51067-4 0  9993
2 53291  53.1608 108.3838 0001440  88.1824 271.9332 15.08832403215735
STARLINK-4159           
1 53292U 22086BC  26164.58203189  .00000231  00000+0  32618-4 0  9993
2 53292  53.1600 113.7534 0001362  87.9632 272.1516 15.08834432215661
STARLINK-4148           
1 53293U 22086BD  26164.53513255  .00006739  00000+0  44117-3 0  9992
2 53293  53.1590 103.7666 0001363  67.1852 292.9283 15.08832860215798
STARLINK-4146           
1 53294U 22086BE  26164.55347321 -.00000060  00000+0  14346-4 0  9998
2 53294  53.1602 103.5334 0001276  91.1308 268.9830 15.08831634215844
STARLINK-4522           
1 53388U 22097A   26164.83776782 -.00000195  00000+0  58620-5 0  9995
2 53388  53.1596  52.4199 0001343  92.8474 267.2671 15.08833550213367
STARLINK-4523           
1 53389U 22097B   26164.83040700 -.00000036  00000+0  15843-4 0  9993
2 53389  53.1608  52.4517 0001619  92.5141 267.6036 15.08835872213188
STARLINK-4517           
1 53390U 22097C   26164.83409067 -.00000484  00000+0 -12328-4 0  9993
2 53390  53.1605  52.4342 0001453  98.5953 261.5204 15.08829451213339
STARLINK-4521           
1 53391U 22097D   26164.82672517  .00000490  00000+0  48886-4 0  9998
2 53391  53.1603  52.4703 0001302  84.1714 275.9425 15.08840089213185
