OBJECT_NAME,OBJECT_ID,EPOCH,MEAN_MOTION,ECCENTRICITY,INCLINATION,RA_OF_ASC_NODE,ARG_OF_PERICENTER,MEAN_ANOMALY,EPHEMERIS_TYPE,CLASSIFICATION_TYPE,NORAD_CAT_ID,ELEMENT_SET_NO,REV_AT_EPOCH,BSTAR,MEAN_MOTION_DOT,MEAN_MOTION_DDOT
STARLINK-4130,2022-086X,2026-06-13T13:56:46.373856,15.08830095,.0001355,53.1605,123.5756,89.7679,270.3468,0,U,53263,999,21554,.30355E-5,-.24E-5,0
STARLINK-3950,2022-086Y,2026-06-13T14:07:23.173824,15.08831076,.0001428,53.1593,123.5416,82.2216,277.8937,0,U,53264,999,21554,.47313E-4,.465E-5,0
STARLINK-4097,2022-086Z,2026-06-13T04:13:51.151008,15.08826047,.0001509,53.1608,125.3943,87.3102,272.8062,0,U,53265,999,21548,.26856001E-4,.139E-5,0
STARLINK-4058,2022-086AA,2026-06-13T13:51:28.173024,15.08832510,.0001473,53.1602,123.5912,85.2337,274.8822,0,U,53266,999,21554,.20204E-4,.33E-6,0
STARLINK-4060,2022-086AB,2026-06-13T04:03:15.213312,15.08829877,.00012524,53.1606,125.4283,87.7020,272.4115,0,U,53267,999,21548,.57334042E-4,.624E-5,0
STARLINK-4109,2022-086AC,2026-06-13T04:08:33.330336,15.08833133,.000146,53.1606,125.4114,74.2517,285.8635,0,U,53268,999,21548,-.457875E-5,-.361E-5,0
STARLINK-4122,2022-086AG,2026-06-13T13:31:36.140736,15.08829024,.0001204,53.1605,113.6517,81.7644,278.3484,0,U,53272,999,21567,.23799E-4,.91E-6,0
STARLINK-4051,2022-086AH,2026-06-13T03:32:47.140512,15.08833658,.00013665,53.1609,115.5227,88.3152,271.7996,0,U,53273,999,21560,-.1254652E-5,-.308E-5,0
STARLINK-4050,2022-086AJ,2026-06-13T13:21:00.205632,15.08829172,.0001249,53.1597,113.6838,66.7406,293.3717,0,U,53274,999,21567,-.45683E-5,-.361E-5,0
STARLINK-4179,2022-086AK,2026-06-13T03:27:29.975616,15.08834149,.00012394,53.1604,115.5395,111.1230,248.9894,0,U,53275,999,21560,-.57716939E-4,-.1206E-4,0
STARLINK-4174,2022-086AL,2026-06-13T03:38:05.088192,15.08832049,.00013731,53.1610,115.5055,88.5896,271.5253,0,U,53276,999,21560,-.8737533E-5,-.427E-5,0
STARLINK-4178,2022-086AM,2026-06-13T03:16:53.530752,15.08834003,.00014285,53.1612,115.6007,86.0920,274.0235,0,U,53277,999,21560,.35555956E-4,.278E-5,0
STARLINK-4180,2022-086AN,2026-06-13T03:22:11.214048,15.08831034,.00012919,53.1620,115.5541,78.6985,281.4151,0,U,53278,999,21560,-.18416685E-4,-.581E-5,0
STARLINK-4169,2022-086AQ,2026-06-13T01:28:51.921120,15.08833374,.00013832,53.1606,70.5827,90.2336,269.8814,0,U,53280,999,21623,.6840272E-5,-.179E-5,0
STARLINK-4164,2022-086AS,2026-06-13T03:11:36.866976,15.08825243,.00013757,53.1605,115.5892,83.7821,276.3327,0,U,53282,999,21560,-.15790989E-4,-.539E-5,0
STARLINK-4175,2022-086AT,2026-06-13T14:03:23.590080,15.08833986,.0000941,53.1603,113.5549,78.7050,281.4047,0,U,53283,999,21567,.52846E-4,.553E-5,0
STARLINK-4173,2022-086AV,2026-06-13T13:47:29.938848,15.08844029,.0000793,53.1591,113.6031,118.9474,241.1597,0,U,53285,999,21566,.77431E-4,.945E-5,0
STARLINK-4165,2022-086AW,2026-06-13T13:15:39.022272,15.08840662,.0001475,53.1608,113.3953,89.8404,270.2757,0,U,53286,999,21566,.34382E-4,.259E-5,0
STARLINK-4107,2022-086AX,2026-06-13T13:36:55.895040,15.08818616,.0001599,53.1605,113.6370,78.7504,281.3667,0,U,53287,999,21566,.27192E-4,.144E-5,0
STARLINK-4162,2022-086AY,2026-06-13T13:52:48.182880,15.08829803,.000142,53.1604,113.5873,89.3597,270.7557,0,U,53288,999,21566,.10406E-4,-.122E-5,0
STARLINK-4176,2022-086AZ,2026-06-13T13:03:08.724672,15.08827801,.0001439,53.1602,108.8846,84.8365,275.2791,0,U,53289,999,21572,-.16336E-4,-.548E-5,0
STARLINK-4149,2022-086BA,2026-06-13T13:39:14.624064,15.09106107,.000168,53.2156,113.6849,70.9652,289.1523,0,U,53290,999,21566,.76572E-3,.12008E-3,0
STARLINK-4166,2022-086BB,2026-06-13T13:50:46.179168,15.08832403,.000144,53.1608,108.3838,88.1824,271.9332,0,U,53291,999,21573,.51067E-4,.525E-5,0
STARLINK-4159,2022-086BC,2026-06-13T13:58:07.555296,15.08834432,.0001362,53.1600,113.7534,87.9632,272.1516,0,U,53292,999,21566,.32618E-4,.231E-5,0
STARLINK-4148,2022-086BD,2026-06-13T12:50:35.452320,15.08832860,.0001363,53.1590,103.7666,67.1852,292.9283,0,U,53293,999,21579,.44117E-3,.6739E-4,0
STARLINK-4146,2022-086BE,2026-06-13T13:17:00.085344,15.08831634,.0001276,53.1602,103.5334,91.1308,268.9830,0,U,53294,999,21584,.14346E-4,-.6E-6,0
STARLINK-4522,2022-097A,2026-06-13T20:06:23.139648,15.08833550,.0001343,53.1596,52.4199,92.8474,267.2671,0,U,53388,999,21336,.5862E-5,-.195E-5,0
STARLINK-4523,2022-097B,2026-06-13T19:55:47.164800,15.08835872,.0001619,53.1608,52.4517,92.5141,267.6036,0,U,53389,999,21318,.15843E-4,-.36E-6,0
STARLINK-4517,2022-097C,2026-06-13T20:01:05.433888,15.08829451,.0001453,53.1605,52.4342,98.5953,261.5204,0,U,53390,999,21333,-.12328E-4,-.484E-5,0
STARLINK-4521,2022-097D,2026-06-13T19:50:29.054688,15.08840089,.0001302,53.1603,52.4703,84.1714,275.9425,0,U,53391,999,21318,.48886E-4,.49E-5,0
